LEMUR-1                 
1 40044U 14033AL  26170.38240916  .00001570  00000+0  18530-3 0  9994
2 40044  97.7880 320.1386 0049600  71.6277 289.0323 14.85253735645796
LEMUR-2-GREENBERG       
1 42837U 17042N   26170.30871126  .00014389  00000+0  47644-3 0  9994
2 42837  97.3823 350.9230 0008279   6.1746 353.9596 15.31382691488717
LEMUR-2-ANDIS           
1 42838U 17042P   26170.00717597  .00016338  00000+0  48414-3 0  9995
2 42838  97.3678 350.8131 0007995   5.7583 354.3751 15.34901289488736
LEMUR-2-MONSON          
1 42839U 17042Q   26170.06014849  .00010941  00000+0  40227-3 0  9990
2 42839  97.4081 350.6452 0006002 358.9199   1.2027 15.28049146488455
LEMUR-2-FURIAUS         
1 42840U 17042R   26170.23860679  .00015285  00000+0  52300-3 0  9992
2 42840  97.3776 348.8037 0008057  62.8731 297.3331 15.30308008488522
LEMUR-2-PETERG          
1 42841U 17042S   26170.25339517  .00018048  00000+0  55119-3 0  9998
2 42841  97.3993 355.2862 0003020 348.3943  11.7229 15.33950101488753
LEMUR-2-DEMBITZ         
1 42842U 17042T   26170.06227203  .00012966  00000+0  44389-3 0  9996
2 42842  97.3827 351.6540 0006568  22.4740 337.6787 15.30339757488639
LEMUR-2-ZACHARY         
1 42845U 17042W   26170.51360732  .00039087  00000+0  68613-3 0  9993
2 42845  97.3596   2.1994 0002713  23.6039 336.5337 15.50432723489569
LEMUR-2-AMANDA-SVANTE   
1 48269U 21034B   26170.18353729  .00028526  00000+0  85661-3 0  9994
2 48269  97.5756 248.5220 0002572 201.4134 158.7001 15.34395097281362
LEMUR-2-SPECIAL-K       
1 48273U 21034F   26170.51553828  .00136736  00000+0  13721-2 0  9998
2 48273  97.5647 257.5424 0004480 225.3070 134.7825 15.65049369282053
LEMUR-2-EMBRIONOVIS     
1 56970U 23084AQ  26170.34935113  .00011485  00000+0  31328-3 0  9997
2 56970  97.6298 314.6314 0007587 311.4054  48.6537 15.37593761168013
LEMUR-2-DEVERILL-M-T    
1 57391U 23100F   26170.05436228  .00020336  00000+0  51440-3 0  9997
2 57391  99.4465 209.3513 0006143  44.3176 315.8554 15.39829166161533
LEMUR-2-BASS            
1 58259U 23174D   26170.47986727  .00015592  00000+0  35327-3 0  9996
2 58259  97.3843 255.2244 0007857 155.0851 205.0778 15.43159048145718
LEMUR-2-JK0903EM1407    
1 58336U 23174CJ  26170.52975644  .00023181  00000+0  38920-3 0  9999
2 58336  97.3920 261.0657 0005644 114.0853 246.0990 15.51780311146097
LEMUR-2-MJR092620       
1 58340U 23174CN  26170.49052110  .00016247  00000+0  34660-3 0  9996
2 58340  97.3972 260.5619 0007100 110.9196 249.2814 15.44945635146000
LEMUR-2-NIMBUS2000      
1 58899U 24022A   26170.28799938  .00016492  00000+0  41358-3 0  9995
2 58899  97.4106  20.3150 0010377 109.4188 250.8180 15.40057591132599
LEMUR-2-VALHALLA        
1 58900U 24022B   26170.47963015  .00014098  00000+0  35770-3 0  9999
2 58900  97.4104  20.4986 0010888 105.1669 255.0782 15.39731042132629
LEMUR-2-CAEL            
1 58903U 24022E   26170.48751564  .00014858  00000+0  36120-3 0  9991
2 58903  97.4086  21.4465 0009246  90.7126 269.5180 15.41038176132697
LEMUR-2-JOHNNYTRUONG    
1 59146U 24043BA  26170.33022919  .00036354  00000+0  43979-3 0  9998
2 59146  97.5384 322.1659 0004864 169.6430 190.4928 15.60603016128374
LEMUR-2-TOMATOKECHUP    
1 60471U 24149D   26170.19195108  .00009349  00000+0  26838-3 0  9992
2 60471  97.3797 252.2439 0001643 171.4844 188.6428 15.36068984102473
LEMUR-2-STELLA          
1 60533U 24149BT  26170.46449551  .00009045  00000+0  53259-3 0  9995
2 60533  97.6731 252.9295 0001509  96.2174 263.9228 15.11849041100849
LEMUR-2-MARHISYAM       
1 60536U 24149BW  26170.51185088  .00009294  00000+0  55547-3 0  9994
2 60536  97.6878 253.4282 0003266 113.7895 246.3677 15.11300051100838
LEMUR-2-AHMED-ASRAR     
1 60576U 24149DN  26170.47760935  .00009602  00000+0  55112-3 0  9994
2 60576  97.7001 255.4958 0001636  38.4313 321.7034 15.12755595100912
LEMUR-2-LLOYD           
1 60577U 24149DP  26170.49536316  .00008884  00000+0  56131-3 0  9994
2 60577  97.6746 251.6255 0005025 133.3940 226.7708 15.09278260100741
LEMUR-2-SQUIRRELCOMM    
1 60578U 24149DQ  26170.18078975  .00005376  00000+0  36143-3 0  9997
2 60578  97.6704 251.0855 0006148  55.1263 305.0542 15.07168128100704
LEMUR-2-SIERRINI        
1 60579U 24149DR  26170.20474188  .00008626  00000+0  52024-3 0  9994
2 60579  97.6836 252.8059 0006012 158.7915 201.3565 15.10981107100763
LEMUR-2-WILSON          
1 62694U 25009CP  26170.50425039  .00002089  00000+0  19542-3 0  9999
2 62694  97.7028 248.9282 0004129  51.9385 308.2207 14.95175196 77705
LEMUR-2-STAR-FOX        
1 62696U 25009CR  26170.55685478  .00006213  00000+0  47188-3 0  9991
2 62696  97.6952 252.1486 0004079 106.0755 254.0919 15.02532511 77910
LEMUR-2-ARIANNA         
1 62699U 25009CU  26170.48862647  .00006424  00000+0  48795-3 0  9990
2 62699  97.6892 251.8534 0004451 111.3467 248.8233 15.02513904 77903
